$$SOE
2460154.500000000, A.D. 2023-Jul-29 00:00:00.0000, -1.707606186031868E+08, 2.838670690866224E+08, -4.194200826749027E+06,
2460161.500000000, A.D. 2023-Aug-05 00:00:00.0000, -1.802294207059174E+08, 2.763639464527327E+08, -2.938375752455845E+06,
2460168.500000000, A.D. 2023-Aug-12 00:00:00.0000, -1.894546717335739E+08, 2.684873816103581E+08, -1.678582323494598E+06,
2460175.500000000, A.D. 2023-Aug-19 00:00:00.0000, -1.984207494060062E+08, 2.602435397622935E+08, -4.164948935279697E+05,
2460182.500000000, A.D. 2023-Aug-26 00:00:00.0000, -2.071120261920837E+08, 2.516392833524032E+08, 8.461670883216113E+05,
2460189.500000000, A.D. 2023-Sep-02 00:00:00.0000, -2.155129005445142E+08, 2.426821926589171E+08, 2.107640317743838E+06,
2460196.500000000, A.D. 2023-Sep-09 00:00:00.0000, -2.236078306595321E+08, 2.333805852467810E+08, 3.366119137978658E+06,
2460203.500000000, A.D. 2023-Sep-16 00:00:00.0000, -2.313813706349368E+08, 2.237435339758375E+08, 4.619757304047823E+06,
2460210.500000000, A.D. 2023-Sep-23 00:00:00.0000, -2.388182086317001E+08, 2.137808835883040E+08, 5.866670012466133E+06,
2460217.500000000, A.D. 2023-Sep-30 00:00:00.0000, -2.459032073785776E+08, 2.035032667858573E+08, 7.104936342756644E+06,
2460224.500000000, A.D. 2023-Oct-07 00:00:00.0000, -2.526214493513779E+08, 1.929221189614401E+08, 8.332602298661798E+06,
2460231.500000000, A.D. 2023-Oct-14 00:00:00.0000, -2.589582855310234E+08, 1.820496879725859E+08, 9.547684097840220E+06,
2460238.500000000, A.D. 2023-Oct-21 00:00:00.0000, -2.648993844111248E+08, 1.708990402377536E+08, 1.074817155886224E+07,
2460245.500000000, A.D. 2023-Oct-28 00:00:00.0000, -2.704307825546641E+08, 1.594840650809853E+08, 1.193203191178188E+07,
2460252.500000000, A.D. 2023-Nov-04 00:00:00.0000, -2.755389377949559E+08, 1.478194762289044E+08, 1.309721409115344E+07,
2460259.500000000, A.D. 2023-Nov-11 00:00:00.0000, -2.802107846989875E+08, 1.359208095365460E+08, 1.424165345053186E+07,
2460266.500000000, A.D. 2023-Nov-18 00:00:00.0000, -2.844337918237156E+08, 1.238044165545901E+08, 1.536327687380265E+07,
2460273.500000000, A.D. 2023-Nov-25 00:00:00.0000, -2.881960204000955E+08, 1.114874536477373E+08, 1.646000827478183E+07,
2460280.500000000, A.D. 2023-Dec-02 00:00:00.0000, -2.914861840803401E+08, 9.898786635899371E+07, 1.752977447304580E+07,
2460287.500000000, A.D. 2023-Dec-09 00:00:00.0000, -2.942937092884067E+08, 8.632436869348437E+07, 1.857051142035724E+07,
2460294.500000000, A.D. 2023-Dec-16 00:00:00.0000, -2.966087954549989E+08, 7.351641710101894E+07, 1.958017073300728E+07,
2460301.500000000, A.D. 2023-Dec-23 00:00:00.0000, -2.984224743046245E+08, 6.058417965023535E+07, 2.055672652841307E+07,
2460308.500000000, A.D. 2023-Dec-30 00:00:00.0000, -2.997266690010633E+08, 4.754850128732815E+07, 2.149818274120177E+07,
2460315.500000000, A.D. 2024-Jan-06 00:00:00.0000, -3.005142543591641E+08, 3.443086270361160E+07, 2.240258084759850E+07,
2460322.500000000, A.D. 2024-Jan-13 00:00:00.0000, -3.007791143717524E+08, 2.125333094914476E+07, 2.326800751320879E+07,
2460329.500000000, A.D. 2024-Jan-20 00:00:00.0000, -3.005161952280693E+08, 8.038504895870183E+06, 2.409260225310293E+07,
2460336.500000000, A.D. 2024-Jan-27 00:00:00.0000, -2.997215552352474E+08, -5.190543704757633E+06, 2.487456528673843E+07,
2460343.500000000, A.D. 2024-Feb-03 00:00:00.0000, -2.983924114531143E+08, -1.841033434491428E+07, 2.561216548739806E+07,
2460350.500000000, A.D. 2024-Feb-10 00:00:00.0000, -2.965271821442373E+08, -3.159704709634525E+07, 2.630374831036292E+07,
2460357.500000000, A.D. 2024-Feb-17 00:00:00.0000, -2.941255242833588E+08, -4.472659681329737E+07, 2.694774361657488E+07,
2460364.500000000, A.D. 2024-Feb-24 00:00:00.0000, -2.911883654967024E+08, -5.777471177333644E+07, 2.754267331483804E+07,
2460371.500000000, A.D. 2024-Mar-02 00:00:00.0000, -2.877179298487246E+08, -7.071701629626331E+07, 2.808715874032231E+07,
2460378.500000000, A.D. 2024-Mar-09 00:00:00.0000, -2.837177568372405E+08, -8.352911683500214E+07, 2.857992767411073E+07,
2460385.500000000, A.D. 2024-Mar-16 00:00:00.0000, -2.791927127649324E+08, -9.618669070025334E+07, 2.901982090714757E+07,
2460392.500000000, A.D. 2024-Mar-23 00:00:00.0000, -2.741489942273004E+08, -1.086655756042038E+08, 2.940579837427767E+07,
2460399.500000000, A.D. 2024-Mar-30 00:00:00.0000, -2.685941256776887E+08, -1.209418592904552E+08, 2.973694499049787E+07,
2460406.500000000, A.D. 2024-Apr-06 00:00:00.0000, -2.625369506293033E+08, -1.329919718172240E+08, 3.001247582450084E+07,
2460413.500000000, A.D. 2024-Apr-13 00:00:00.0000, -2.559876128627514E+08, -1.447927788236798E+08, 3.023174029265922E+07,
2460420.500000000, A.D. 2024-Apr-20 00:00:00.0000, -2.489575286078987E+08, -1.563216722442627E+08, 3.039422562609274E+07,
2460427.500000000, A.D. 2024-Apr-27 00:00:00.0000, -2.414593513273401E+08, -1.675566581700148E+08, 3.049955965593144E+07,
2460434.500000000, A.D. 2024-May-04 00:00:00.0000, -2.335069292249141E+08, -1.784764417212046E+08, 3.054751281078862E+07,
2460441.500000000, A.D. 2024-May-11 00:00:00.0000, -2.251152555628006E+08, -1.890605082345015E+08, 3.053799926847074E+07,
2460448.500000000, A.D. 2024-May-18 00:00:00.0000, -2.163004121346918E+08, -1.992891999920510E+08, 3.047107724338198E+07,
2460455.500000000, A.D. 2024-May-25 00:00:00.0000, -2.070795063958692E+08, -2.091437878054264E+08, 3.034694840785422E+07,
2460462.500000000, A.D. 2024-Jun-01 00:00:00.0000, -1.974706028006653E+08, -2.186065368863404E+08, 3.016595645035783E+07,
2460469.500000000, A.D. 2024-Jun-08 00:00:00.0000, -1.874926487832093E+08, -2.276607664800741E+08, 2.992858476969308E+07,
2460476.500000000, A.D. 2024-Jun-15 00:00:00.0000, -1.771653957208403E+08, -2.362909022568444E+08, 2.963545334576816E+07,
2460483.500000000, A.D. 2024-Jun-22 00:00:00.0000, -1.665093166647283E+08, -2.444825199206740E+08, 2.928731501604138E+07,
2460490.500000000, A.D. 2024-Jun-29 00:00:00.0000, -1.555455237635745E+08, -2.522223815928097E+08, 2.888505125178073E+07,
2460497.500000000, A.D. 2024-Jul-06 00:00:00.0000, -1.442956835538911E+08, -2.594984672858934E+08, 2.842966704595360E+07,
2460504.500000000, A.D. 2024-Jul-13 00:00:00.0000, -1.327819289890512E+08, -2.662999985959344E+08, 2.792228502885044E+07,
2460511.500000000, A.D. 2024-Jul-20 00:00:00.0000, -1.210267709997992E+08, -2.726174535116414E+08, 2.736413915687424E+07,
2460518.500000000, A.D. 2024-Jul-27 00:00:00.0000, -1.090530110203559E+08, -2.784425734409605E+08, 2.675656802896903E+07,
2460525.500000000, A.D. 2024-Aug-03 00:00:00.0000, -9.688365494429888E+07, -2.837683630562630E+08, 2.610100784929758E+07,
2460532.500000000, A.D. 2024-Aug-10 00:00:00.0000, -8.454182902896020E+07, -2.885890832694870E+08, 2.539898509523357E+07,
2460539.500000000, A.D. 2024-Aug-17 00:00:00.0000, -7.205069832651035E+07, -2.929002376967762E+08, 2.465210896317521E+07,
2460546.500000000, A.D. 2024-Aug-24 00:00:00.0000, -5.943338817680876E+07, -2.966985530781813E+08, 2.386206366265874E+07,
2460553.500000000, A.D. 2024-Aug-31 00:00:00.0000, -4.671290914047270E+07, -2.999819542040419E+08, 2.303060061551927E+07,
2460560.500000000, A.D. 2024-Sep-07 00:00:00.0000, -3.391208542629617E+07, -3.027495337474982E+08, 2.215953060516711E+07,
2460567.500000000, A.D. 2024-Sep-14 00:00:00.0000, -2.105348707210717E+07, -3.050015165593761E+08, 2.125071601321171E+07,
2460574.500000000, A.D. 2024-Sep-21 00:00:00.0000, -8.159368178916568E+06, -3.067392185791993E+08, 2.030606342164585E+07,
2460581.500000000, A.D. 2024-Sep-28 00:00:00.0000, 4.748388114474686E+06, -3.079650041587691E+08, 1.932751641380751E+07,
2460588.500000000, A.D. 2024-Oct-05 00:00:00.0000, 1.764832145394096E+07, -3.086822423601634E+08, 1.831704828369376E+07,
2460595.500000000, A.D. 2024-Oct-12 00:00:00.0000, 3.051944246113419E+07, -3.088952597938268E+08, 1.727665496932836E+07,
2460602.500000000, A.D. 2024-Oct-19 00:00:00.0000, 4.334127554144900E+07, -3.086092907872524E+08, 1.620834838035467E+07,
2460609.500000000, A.D. 2024-Oct-26 00:00:00.0000, 5.609389634018117E+07, -3.078304261853591E+08, 1.511415008383359E+07,
2460616.500000000, A.D. 2024-Nov-02 00:00:00.0000, 6.875796421777888E+07, -3.065655614148954E+08, 1.399608533585204E+07,
2460623.500000000, A.D. 2024-Nov-09 00:00:00.0000, 8.131474998785931E+07, -3.048223442498863E+08, 1.285617747101825E+07,
2460630.500000000, A.D. 2024-Nov-16 00:00:00.0000, 9.374615911891758E+07, -3.026091226941066E+08, 1.169644266055550E+07,
2460637.500000000, A.D. 2024-Nov-23 00:00:00.0000, 1.060347506510730E+08, -2.999348934009121E+08, 1.051888503750655E+07,
2460644.500000000, A.D. 2024-Nov-30 00:00:00.0000, 1.181637522666589E+08, -2.968092510020936E+08, 9.325492168715522E+06,
2460651.500000000, A.D. 2024-Dec-07 00:00:00.0000, 1.301170721829379E+08, -2.932423382147067E+08, 8.118230867750406E+06,
2460658.500000000, A.D. 2024-Dec-14 00:00:00.0000, 1.418793074393503E+08, -2.892447957514126E+08, 6.899043506305769E+06,
2460665.500000000, A.D. 2024-Dec-21 00:00:00.0000, 1.534357465292391E+08, -2.848277134841619E+08, 5.669844926214024E+06,
2460672.500000000, A.D. 2024-Dec-28 00:00:00.0000, 1.647723686219712E+08, -2.800025859997796E+08, 4.432519516875938E+06,
2460679.500000000, A.D. 2025-Jan-04 00:00:00.0000, 1.758758422484108E+08, -2.747812703125234E+08, 3.188918400885925E+06,
2460686.500000000, A.D. 2025-Jan-11 00:00:00.0000, 1.867335219000072E+08, -2.691759441871904E+08, 1.940857016166076E+06,
2460693.500000000, A.D. 2025-Jan-18 00:00:00.0000, 1.973334418880155E+08, -2.631990660752532E+08, 6.901130878231972E+05,
2460700.500000000, A.D. 2025-Jan-25 00:00:00.0000, 2.076643079606889E+08, -2.568633371947743E+08, -5.615750882874429E+05,
2460707.500000000, A.D. 2025-Feb-01 00:00:00.0000, 2.177154871117739E+08, -2.501816658166499E+08, -1.812510087697878E+06,
2460714.500000000, A.D. 2025-Feb-08 00:00:00.0000, 2.274769958699721E+08, -2.431671337490769E+08, -3.061036546894476E+06,
2460721.500000000, A.D. 2025-Feb-15 00:00:00.0000, 2.369394873148212E+08, -2.358329650324840E+08, -4.305542122918978E+06,
$$EOE